ONEWEB-0275             
1 48993U 21060AC  25317.62603444  .00000114  00000+0  26539-3 0  9992
2 48993  87.9011 271.7054 0001873  83.8645 276.2699 13.16596946211195
ONEWEB-0276             
1 48994U 21060AD  25317.88728022 -.00000021  00000+0 -89284-4 0  9997
2 48994  87.9011 271.6524 0002026  77.1906 282.9451 13.16595529211246
ONEWEB-0277             
1 48995U 21060AE  25317.82398400  .00000027  00000+0  36372-4 0  9999
2 48995  87.9004 271.6922 0001947  87.2195 272.9159 13.16597266211226
ONEWEB-0278             
1 48996U 21060AF  25317.81447256  .00000058  00000+0  11857-3 0  9997
2 48996  87.9013 271.6636 0001875  74.3083 285.8255 13.16593750211350
ONEWEB-0279             
1 48997U 21060AG  25317.82237930  .00000022  00000+0  23302-4 0  9995
2 48997  87.9019 271.6590 0002058  88.5531 271.5836 13.16594858211284
ONEWEB-0280             
1 48998U 21060AH  25317.83742296 -.00001310  00000+0 -34594-2 0  9999
2 48998  87.9009 271.6625 0002245  73.8371 286.3006 13.16602376211222
ONEWEB-0281             
1 48999U 21060AJ  25317.84296887  .00000038  00000+0  66370-4 0  9994
2 48999  87.9013 271.6571 0001787  82.6839 277.4495 13.16593838211297
ONEWEB-0282             
1 49000U 21060AK  25317.56905692  .00000122  00000+0  28585-3 0  9997
2 49000  87.9012 271.7226 0002073  81.5523 278.5843 13.16596029211233
